NORAD_CAT_ID,OBJECT_NAME,OBJECT_TYPE,EPOCH,MEAN_MOTION,ECCENTRICITY,INCLINATION,RA_OF_ASC_NODE,ARG_OF_PERICENTER,MEAN_ANOMALY,BSTAR,MEAN_MOTION_DOT,MEAN_MOTION_DDOT,TLE_LINE0,TLE_LINE1,TLE_LINE2,SEMIMAJOR_AXIS,PERIOD,APOGEE,PERIGEE,DECAYED
56463.0,STARLINK-6051,PAYLOAD,2024-06-20 14:42:32,14.98331185,0.0003038,70.0002,285.6261,269.8682,90.2128,2.9461e-05,2.59e-06,0.0,0 STARLINK-6051,1 56463U 23064R   24172.61288043  .00000259  00000-0  29461-4 0  9999,2 56463  70.0002 285.6261 0003038 269.8682  90.2128 14.98331185 61316,6950.189,96.107,574.166,569.943,0.0
56463.0,STARLINK-6051,PAYLOAD,2024-06-20 17:54:48,14.98334607,0.0003017,70.0002,285.2895,269.7691,90.3123,5.3713e-05,5.48e-06,0.0,0 STARLINK-6051,1 56463U 23064R   24172.74639730  .00000548  00000-0  53713-4 0  9994,2 56463  70.0002 285.2895 0003017 269.7691  90.3123 14.98334607 61690,6950.179,96.107,574.141,569.947,0.0
56463.0,STARLINK-6051,PAYLOAD,2024-06-21 11:32:17,14.98331714,0.0003008,70.0003,283.4379,273.2894,86.7921,5.692e-05,5.86e-06,0.0,0 STARLINK-6051,1 56463U 23064R   24173.48075837  .00000586  00000-0  56920-4 0  9993,2 56463  70.0003 283.4379 0003008 273.2894  86.7921 14.98331714 61447,6950.188,96.107,574.143,569.962,0.0
56463.0,STARLINK-6051,PAYLOAD,2024-06-21 16:20:41,14.98332236,0.0002992,70.0004,282.9333,272.0483,88.0333,6.4309e-05,6.74e-06,0.0,0 STARLINK-6051,1 56463U 23064R   24173.68103762  .00000674  00000-0  64309-4 0  9992,2 56463  70.0004 282.9333 0002992 272.0483  88.0333 14.98332236 61479,6950.186,96.107,574.13,569.971,0.0
56463.0,STARLINK-6051,PAYLOAD,2024-06-22 13:10:26,14.98328745,0.0003136,70.0002,280.7455,265.27,94.8101,-1.7438e-05,-3.01e-06,0.0,0 STARLINK-6051,1 56463U 23064R   24174.54892093 -.00000301  00000-0 -17438-4 0  9990,2 56463  70.0002 280.7455 0003136 265.2700  94.8101 14.98328745 61967,6950.197,96.107,574.241,569.882,0.0
56463.0,STARLINK-6051,PAYLOAD,2024-06-22 16:22:42,14.98333198,0.0003151,70.0001,280.4089,264.1163,95.9637,2.8302e-05,2.45e-06,0.0,0 STARLINK-6051,1 56463U 23064R   24174.68243665  .00000245  00000-0  28302-4 0  9997,2 56463  70.0001 280.4089 0003151 264.1163  95.9637 14.98333198 61621,6950.183,96.107,574.238,569.858,0.0
56463.0,STARLINK-6051,PAYLOAD,2024-06-23 13:12:27,14.98333115,0.0003247,69.9999,278.2201,266.3215,93.7573,2.4728e-05,2.02e-06,0.0,0 STARLINK-6051,1 56463U 23064R   24175.55031581  .00000202  00000-0  24728-4 0  9997,2 56463  69.9999 278.2201 0003247 266.3215  93.7573 14.98333115 61751,6950.183,96.107,574.305,569.792,0.0
56463.0,STARLINK-6051,PAYLOAD,2024-06-23 16:24:43,14.98336797,0.0003197,70.0,277.8834,264.6431,95.4363,6.6961e-05,7.06e-06,0.0,0 STARLINK-6051,1 56463U 23064R   24175.68383177  .00000706  00000-0  66961-4 0  9996,2 56463  70.0000 277.8834 0003197 264.6431  95.4363 14.98336797 62137,6950.172,96.107,574.259,569.815,0.0
56463.0,STARLINK-6051,PAYLOAD,2024-06-24 14:50:35,14.9833358,0.0003188,70.0001,275.5277,263.7631,96.3165,6.8901e-05,7.29e-06,0.0,0 STARLINK-6051,1 56463U 23064R   24176.61847195  .00000729  00000-0  68901-4 0  9996,2 56463  70.0001 275.5277 0003188 263.7631  96.3165 14.98333580 61918,6950.182,96.107,574.263,569.831,0.0
56463.0,STARLINK-6051,PAYLOAD,2024-06-24 16:26:43,14.98334375,0.000318,70.0002,275.3596,263.2905,96.7892,7.5933e-05,8.13e-06,0.0,0 STARLINK-6051,1 56463U 23064R   24176.68523110  .00000813  00000-0  75933-4 0  9998,2 56463  70.0002 275.3596 0003180 263.2905  96.7892 14.98334375 62287,6950.179,96.107,574.255,569.834,0.0
56463.0,STARLINK-6051,PAYLOAD,2024-06-25 13:16:29,14.98329168,0.0002897,70.001,273.1721,257.924,102.1594,-1.3533e-05,-2.54e-06,0.0,0 STARLINK-6051,1 56463U 23064R   24177.55311641 -.00000254  00000-0 -13533-4 0  9998,2 56463  70.0010 273.1721 0002897 257.9240 102.1594 14.98329168 62418,6950.195,96.107,574.074,570.047,0.0
56463.0,STARLINK-6051,PAYLOAD,2024-06-25 14:52:37,14.98329543,0.0002887,70.001,273.0038,257.636,102.4476,-8.9901e-06,-2e-06,0.0,0 STARLINK-6051,1 56463U 23064R   24177.61987603 -.00000200  00000-0 -89901-5 0  9996,2 56463  70.0010 273.0038 0002887 257.6360 102.4476 14.98329543 62067,6950.194,96.107,574.066,570.053,0.0
56463.0,STARLINK-6051,PAYLOAD,2024-06-25 16:28:45,14.98329735,0.0002897,70.0009,272.8353,259.4476,100.6357,-8.7718e-06,-1.98e-06,0.0,0 STARLINK-6051,1 56463U 23064R   24177.68663596 -.00000198  00000-0 -87718-5 0  9995,2 56463  70.0009 272.8353 0002897 259.4476 100.6357 14.98329735 62073,6950.194,96.107,574.072,570.045,0.0
56463.0,STARLINK-6051,PAYLOAD,2024-06-26 11:42:21,14.98336315,0.0002989,70.0007,270.8147,264.8901,95.1917,6.6216e-05,6.97e-06,0.0,0 STARLINK-6051,1 56463U 23064R   24178.48774814  .00000697  00000-0  66216-4 0  9991,2 56463  70.0007 270.8147 0002989 264.8901  95.1917 14.98336315 62550,6950.173,96.107,574.116,569.961,0.0
56463.0,STARLINK-6051,PAYLOAD,2024-06-27 13:20:30,14.9833192,0.0003251,70.0,268.1219,264.8223,95.2565,4.9274e-05,4.95e-06,0.0,0 STARLINK-6051,1 56463U 23064R   24179.55590961  .00000495  00000-0  49274-4 0  9990,2 56463  70.0000 268.1219 0003251 264.8223  95.2565 14.98331920 62718,6950.187,96.107,574.311,569.792,0.0
56463.0,STARLINK-6051,PAYLOAD,2024-06-27 16:32:46,14.98332632,0.0003302,69.9999,267.7849,267.6124,92.4657,5.0662e-05,5.12e-06,0.0,0 STARLINK-6051,1 56463U 23064R   24179.68942906  .00000512  00000-0  50662-4 0  9997,2 56463  69.9999 267.7849 0003302 267.6124  92.4657 14.98332632 62378,6950.185,96.107,574.345,569.755,0.0
56463.0,STARLINK-6051,PAYLOAD,2024-06-28 13:22:31,14.98332677,0.0003174,70.0,265.5961,267.5667,92.5128,2.9883e-06,-5.7e-07,0.0,0 STARLINK-6051,1 56463U 23064R   24180.55730984 -.00000057  00000-0  29883-5 0  9993,2 56463  70.0000 265.5961 0003174 267.5667  92.5128 14.98332677 62860,6950.185,96.107,574.256,569.844,0.0
56463.0,STARLINK-6051,PAYLOAD,2024-06-28 14:58:39,14.9833471,0.0003133,70.0,265.4276,268.8111,91.2689,2.3462e-05,1.87e-06,0.0,0 STARLINK-6051,1 56463U 23064R   24180.62406790  .00000187  00000-0  23462-4 0  9995,2 56463  70.0000 265.4276 0003133 268.8111  91.2689 14.98334710 62511,6950.178,96.107,574.221,569.866,0.0
56463.0,STARLINK-6051,PAYLOAD,2024-06-29 11:48:24,14.98325915,0.0003137,69.9998,263.2397,269.1867,90.8932,-7.6734e-06,-1.85e-06,0.0,0 STARLINK-6051,1 56463U 23064R   24181.49195403 -.00000185  00000-0 -76734-5 0  9998,2 56463  69.9998 263.2397 0003137 269.1867  90.8932 14.98325915 63008,6950.206,96.107,574.251,569.89,0.0
56463.0,STARLINK-6051,PAYLOAD,2024-06-29 13:24:32,14.98326432,0.0003117,69.9998,263.0713,269.1823,90.8979,-1.2575e-06,-1.08e-06,0.0,0 STARLINK-6051,1 56463U 23064R   24181.55871371 -.00000108  00000-0 -12575-5 0  9998,2 56463  69.9998 263.0713 0003117 269.1823  90.8979 14.98326432 62654,6950.204,96.107,574.235,569.903,0.0
56463.0,STARLINK-6051,PAYLOAD,2024-06-29 15:00:40,14.98327181,0.0003105,69.9998,262.903,269.2584,90.8219,8.5201e-06,9e-08,0.0,0 STARLINK-6051,1 56463U 23064R   24181.62547317  .00000009  00000-0  85201-5 0  9990,2 56463  69.9998 262.9030 0003105 269.2584  90.8219 14.98327181 62666,6950.202,96.107,574.225,569.909,0.0
56463.0,STARLINK-6051,PAYLOAD,2024-06-30 13:26:34,14.98327099,0.0003196,69.9993,260.5453,268.4473,91.632,-2.0436e-06,-1.17e-06,0.0,0 STARLINK-6051,1 56463U 23064R   24182.56011662 -.00000117  00000-0 -20436-5 0  9994,2 56463  69.9993 260.5453 0003196 268.4473  91.6320 14.98327099 62808,6950.202,96.107,574.288,569.846,0.0
56463.0,STARLINK-6051,PAYLOAD,2024-06-30 15:02:42,14.983283,0.0003169,69.9994,260.3767,267.6552,92.4245,1.6501e-05,1.04e-06,0.0,0 STARLINK-6051,1 56463U 23064R   24182.62687549  .00000104  00000-0  16501-4 0  9995,2 56463  69.9994 260.3767 0003169 267.6552  92.4245 14.98328300 63176,6950.198,96.107,574.266,569.861,0.0
56463.0,STARLINK-6051,PAYLOAD,2024-07-01 05:27:55,14.98254739,0.0003195,69.9992,258.8613,260.8475,99.2323,0.0014627,0.00017369,0.0,0 STARLINK-6051,1 56463U 23064R   24183.22772740  .00017369  00000-0  14627-2 0  9996,2 56463  69.9992 258.8613 0003195 260.8475  99.2323 14.98254739 63260,6950.426,96.112,574.511,570.07,0.0
56463.0,STARLINK-6051,PAYLOAD,2024-07-01 11:52:26,14.98330928,0.0003125,69.9992,258.188,267.6987,92.3814,0.00011542,1.284e-05,0.0,0 STARLINK-6051,1 56463U 23064R   24183.49475248  .00001284  00000-0  11542-3 0  9991,2 56463  69.9992 258.1880 0003125 267.6987  92.3814 14.98330928 63304,6950.19,96.107,574.227,569.883,0.0
56463.0,STARLINK-6051,PAYLOAD,2024-07-01 13:28:34,14.98332173,0.0003119,69.9992,258.0197,267.7053,92.3749,0.00012806,1.435e-05,0.0,0 STARLINK-6051,1 56463U 23064R   24183.56151138  .00001435  00000-0  12806-3 0  9990,2 56463  69.9992 258.0197 0003119 267.7053  92.3749 14.98332173 62953,6950.186,96.107,574.219,569.883,0.0
56463.0,STARLINK-6051,PAYLOAD,2024-07-01 15:04:42,14.98334342,0.0003123,69.9993,257.8515,267.8324,92.2478,0.0001498,1.695e-05,0.0,0 STARLINK-6051,1 56463U 23064R   24183.62826943  .00001695  00000-0  14980-3 0  9993,2 56463  69.9993 257.8515 0003123 267.8324  92.2478 14.98334342 62961,6950.179,96.107,574.215,569.874,0.0
56463.0,STARLINK-6051,PAYLOAD,2024-07-02 05:29:55,14.98322553,0.0003193,69.9991,256.3367,267.1742,92.9052,0.00015711,1.782e-05,0.0,0 STARLINK-6051,1 56463U 23064R   24184.22911723  .00001782  00000-0  15711-3 0  9991,2 56463  69.9991 256.3367 0003193 267.1742  92.9052 14.98322553 63419,6950.216,96.107,574.3,569.862,0.0
56463.0,STARLINK-6051,PAYLOAD,2024-07-02 13:30:35,14.98331846,0.0003228,69.999,255.4956,268.7046,91.3743,9.0676e-05,9.89e-06,0.0,0 STARLINK-6051,1 56463U 23064R   24184.56291318  .00000989  00000-0  90676-4 0  9991,2 56463  69.9990 255.4956 0003228 268.7046  91.3743 14.98331846 63106,6950.187,96.107,574.296,569.809,0.0
56463.0,STARLINK-6051,PAYLOAD,2024-07-02 15:06:43,14.9833241,0.0003227,69.999,255.3272,268.7043,91.3747,9.5829e-05,1.051e-05,0.0,0 STARLINK-6051,1 56463U 23064R   24184.62967265  .00001051  00000-0  95829-4 0  9995,2 56463  69.9990 255.3272 0003227 268.7043  91.3747 14.98332410 63474,6950.185,96.107,574.293,569.808,0.0
